{"type":"FeatureCollection","features":[{"type":"Feature","id":1,"geometry":{"type":"LineString","coordinates":[[-121.75082278295554,38.542875936684645],[-121.75011201231034,38.540256727495652]]},"properties":{"OBJECTID":1,"GlobalID":"{D7892A7B-445A-4FB7-BF4E-88A85C733C69}","type":"Restricted Access","Shape.STLength()":975.28632347986365}},{"type":"Feature","id":2,"geometry":{"type":"LineString","coordinates":[[-121.75675193991954,38.539166557195223],[-121.74977989983157,38.539083016179944],[-121.747670686912,38.539452197197761],[-121.74766631977683,38.539443867087584]]},"properties":{"OBJECTID":2,"GlobalID":"{6364DD5C-3709-4F2F-B2B5-563540AD2954}","type":"Restricted Access","Shape.STLength()":2615.8197912115479}},{"type":"Feature","id":3,"geometry":{"type":"LineString","coordinates":[[-121.75325176709278,38.543408563842853],[-121.75205441332187,38.539124975045254]]},"properties":{"OBJECTID":3,"GlobalID":"{DC1528A2-B379-4AC2-AD63-A1741CF0A390}","type":"Restricted Access","Shape.STLength()":1597.1454704502546}},{"type":"Feature","id":4,"geometry":{"type":"LineString","coordinates":[[-121.75299855148315,38.542506836522811],[-121.74714060704282,38.543522203090568]]},"properties":{"OBJECTID":4,"GlobalID":"{AF7F73C0-36B7-4FF5-9D21-CC3B0E38317F}","type":"Restricted Access","Shape.STLength()":1715.7749582956885}},{"type":"Feature","id":5,"geometry":{"type":"LineString","coordinates":[[-121.74641374211778,38.54091204550835],[-121.75226693981315,38.539885316092835]]},"properties":{"OBJECTID":5,"GlobalID":"{D7A680A4-06F9-4B04-9A95-830A1A796BA3}","type":"Restricted Access","Shape.STLength()":1715.4064079812069}},{"type":"Feature","id":6,"geometry":{"type":"LineString","coordinates":[[-121.7489859658745,38.543186546236882],[-121.74820276162559,38.54059354507956]]},"properties":{"OBJECTID":6,"GlobalID":"{F2BD4404-AE9E-4032-8FFB-9557DD237963}","type":"Restricted Access","Shape.STLength()":970.52490714331191}},{"type":"Feature","id":7,"geometry":{"type":"LineString","coordinates":[[-121.75017542696594,38.543927992185594],[-121.74998374772005,38.543270460042059],[-121.74949022167141,38.543362765903396],[-121.74969406915675,38.544000511103036],[-121.74971552674496,38.544092815477768],[-121.75002666337789,38.544034076388584]]},"properties":{"OBJECTID":7,"GlobalID":"{8C576C2E-C109-4FD9-839D-235593814B95}","type":"Restricted Access","Shape.STLength()":755.9120162997749}},{"type":"Feature","id":8,"geometry":{"type":"LineString","coordinates":[[-121.75377102663718,38.541373972618594],[-121.75363155202793,38.541457888771568],[-121.75276251669379,38.541608938071491]]},"properties":{"OBJECTID":8,"GlobalID":"{156FAA4B-CBE1-469F-AC8C-C0E9AD8220FF}","type":"Restricted Access","Shape.STLength()":304.82886534676794}},{"type":"Feature","id":9,"geometry":{"type":"LineString","coordinates":[[-121.75540181005948,38.535902409377506],[-121.75622793052425,38.539141759278436]]},"properties":{"OBJECTID":9,"GlobalID":"{3ED2F709-C01A-4170-AE65-DE7FD860F662}","type":"Restricted Access","Shape.STLength()":1203.1390061382642}},{"type":"Feature","id":802,"geometry":{"type":"LineString","coordinates":[[-121.76744467195562,38.539225949005122],[-121.76403008937652,38.539206370153195]]},"properties":{"OBJECTID":802,"GlobalID":"{C698C3FD-5E9E-469C-B2DE-2B6F16B7E0DE}","type":"L, C, Visitor Permit","Shape.STLength()":976.69693030283088}},{"type":"Feature","id":803,"geometry":{"type":"LineString","coordinates":[[-121.76403008937652,38.539206370153195],[-121.76398572389965,38.541650692148046]]},"properties":{"OBJECTID":803,"GlobalID":"{513ACE93-2C59-498E-8A8A-2068A211B476}","type":"C, Visitor Permit","Shape.STLength()":890.26310653506948}},{"type":"Feature","id":805,"geometry":{"type":"LineString","coordinates":[[-121.76584760030916,38.530103152944214],[-121.76271478028461,38.53006118757785]]},"properties":{"OBJECTID":805,"GlobalID":"{9A78FE69-1D81-47AE-B5A7-A634062BEBA3}","type":"L, C, Visitor Permit","Shape.STLength()":896.32350999875507}},{"type":"Feature","id":806,"geometry":{"type":"LineString","coordinates":[[-121.76616946515932,38.531529942351362],[-121.76620165115361,38.530296190104522]]},"properties":{"OBJECTID":806,"GlobalID":"{558C1AD0-273A-4260-A7D3-356D9AF47D22}","type":"L, C, Visitor Permit","Shape.STLength()":449.40193525672902}},{"type":"Feature","id":807,"geometry":{"type":"LineString","coordinates":[[-121.76440993577373,38.536414385235162],[-121.76536480245043,38.536405992425131],[-121.76568666717375,38.536414385111051],[-121.76596561738205,38.536330462812828],[-121.76622310905476,38.536221363573581],[-121.76643768559194,38.536103871872264],[-121.76664153388374,38.535894065082338],[-121.76682392409401,38.535650688224415],[-121.76702777144014,38.535390525741271],[-121.76718870491369,38.535138754794637],[-121.7672638063943,38.534928945432469],[-121.76727453506577,38.534811451858658]]},"properties":{"OBJECTID":807,"GlobalID":"{3CFD8726-7F8D-420C-874F-89D34FEDD5EA}","type":"L, C, Visitor Permit","Shape.STLength()":1144.2957937803853}},{"type":"Feature","id":808,"geometry":{"type":"LineString","coordinates":[[-121.76732817949659,38.533737214626235],[-121.76736036566768,38.532218148850973]]},"properties":{"OBJECTID":808,"GlobalID":"{94C1F920-8B95-4C22-86E7-B57E9D88B287}","type":"L, C, Visitor Permit","Shape.STLength()":553.28963738531002}},{"type":"Feature","id":809,"geometry":{"type":"LineString","coordinates":[[-121.76408807105757,38.542271922051434],[-121.76407734233571,38.543706861857224]]},"properties":{"OBJECTID":809,"GlobalID":"{FC944143-FF68-47CA-947A-843B20CC02C6}","type":"C, Visitor Permit","Shape.STLength()":522.58509224821751}},{"type":"Feature","id":810,"geometry":{"type":"LineString","coordinates":[[-121.75883094130747,38.534299511934236],[-121.75542990030439,38.534265942374802]]},"properties":{"OBJECTID":810,"GlobalID":"{A1C4CC04-5CEA-4027-930D-629E0BFC6D63}","type":"C, Visitor Permit","Shape.STLength()":972.94166432339114}},{"type":"Feature","id":1204,"geometry":{"type":"LineString","coordinates":[[-121.75540181005948,38.535902409377506],[-121.75535961209195,38.535665669077076],[-121.75535961206749,38.535183109402745]]},"properties":{"OBJECTID":1204,"GlobalID":"{D2FB6EEC-46E3-4E34-A59F-D1DB21447045}","type":"C, Visitor Permit","Shape.STLength()":262.79534814488193}},{"type":"Feature","id":1604,"geometry":{"type":"LineString","coordinates":[[-121.74849817998708,38.535559207709902],[-121.74796912103534,38.536133406638669],[-121.74775857704459,38.536407837079075],[-121.74751024333094,38.536770929193928],[-121.74729430147258,38.537298675364717],[-121.74709995278626,38.537885525943715],[-121.74694339416394,38.538210612628085],[-121.74668966222043,38.53852303255097],[-121.74626857451227,38.538848117269247],[-121.74590147251141,38.539092984288743],[-121.74566933430758,38.539206974223077]]},"properties":{"OBJECTID":1604,"GlobalID":"{69246D35-4B32-415E-96AF-888DBA2E74EC}","type":"Restricted Access","Shape.STLength()":1594.1051327726789}},{"type":"Feature","id":2004,"geometry":{"type":"LineString","coordinates":[[-121.76071389588114,38.538663354956682],[-121.76079809129045,38.536223218029598]]},"properties":{"OBJECTID":2004,"GlobalID":"{9575E173-3D55-42A2-A99D-1EF8C9469600}","type":"C, Visitor Permit","Shape.STLength()":888.97480264107855}},{"type":"Feature","id":2005,"geometry":{"type":"LineString","coordinates":[[-121.76097245360683,38.538617263127577],[-121.76102609725024,38.537047947634974]]},"properties":{"OBJECTID":2005,"GlobalID":"{7C40909F-F969-4D05-967B-4CCD0063D53B}","type":"C, Visitor Permit","Shape.STLength()":571.71891278880082}},{"type":"Feature","id":2405,"geometry":{"type":"LineString","coordinates":[[-121.76954286898533,38.532121944674955],[-121.7704440917656,38.532390511158169],[-121.77108782127344,38.532558364907644],[-121.77179592446899,38.532608720615933],[-121.77237528212753,38.532575150798188],[-121.7730833845218,38.532356940085052],[-121.77383440388503,38.532038016957195],[-121.77484291416869,38.531484094347611],[-121.77552955924313,38.531181952679169],[-121.7763878664728,38.53071195252415]]},"properties":{"OBJECTID":2405,"GlobalID":"{7427D42D-A442-48C2-8AE4-296ECD5515A8}","type":"L, C, Visitor Permit","Shape.STLength()":2177.600070131914}}]}